STARLINK-30706
1 57947U 23148N   25352.46114501  .00001492  00000+0  62495-4 0  9994
2 57947  53.1620  41.7339 0001123  96.3568 263.7561 15.30192152125986